ONEWEB-0267             
1 48985U 21060U   25105.65785979  .00000085  00000+0  18762-3 0  9991
2 48985  87.9035 314.0029 0001726  76.8690 283.2633 13.16596341183333
ONEWEB-0268             
1 48986U 21060V   25106.08216778 -.00000338  00000+0 -91743-3 0  9999
2 48986  87.9027 313.9256 0001761  84.6576 275.4756 13.16595850184945
ONEWEB-0269             
1 48987U 21060W   25106.29117639  .00000021  00000+0  21868-4 0  9998
2 48987  87.9039 313.9175 0001837  87.5606 272.5735 13.16595136184750
ONEWEB-0270             
1 48988U 21060X   25105.85259264 -.00000080  00000+0 -24367-3 0  9994
2 48988  87.9032 313.9750 0001506  73.9453 286.1844 13.16595167183435
ONEWEB-0271             
1 48989U 21060Y   25106.29592686 -.00000033  00000+0 -11968-3 0  9993
2 48989  87.9035 313.8664 0001694  78.8111 281.3211 13.16594841184787
ONEWEB-0272             
1 48990U 21060Z   25105.93809628  .00000016  00000+0  74919-5 0  9998
2 48990  87.9033 313.9707 0001734  79.0607 281.0719 13.16595035183396
ONEWEB-0273             
1 48991U 21060AA  25105.65629435  .00000199  00000+0  48600-3 0  9992
2 48991  87.9036 314.0113 0001567  86.1296 274.0014 13.16596015183333
ONEWEB-0274             
1 48992U 21060AB  25105.60562235 -.00000020  00000+0 -85931-4 0  9996
2 48992  87.9043 314.0557 0002081  79.5353 280.6012 13.16592063183369
